STARLINK-36205          
1 67098U 25298Z   26005.16670139  .00004954  00000+0  11648-3 0  9996
2 67098  69.9999 184.0847 0003048 274.2326 176.8531 15.42702320  4748
STARLINK-36193          
1 67099U 25298AA  26005.16670139 -.00003523  00000+0 -77100-4 0  9996
2 67099  69.9996 184.3419 0003297 283.2343 303.8602 15.42705840  4683
STARLINK-36215          
1 67100U 25298AB  26005.07348710  .00092656  00000+0  14886-2 0  9999
2 67100  69.9996 184.2598 0003416 270.3720  89.7075 15.52569930  3459
STARLINK-36200          
1 67101U 25298AC  26005.07430621 -.00620522  00000+0 -11221-1 0  9993
2 67101  69.9997 184.2645 0003242 276.9868  83.0949 15.51698128  3454
STARLINK-36255          
1 67102U 25299A   26005.16670139  .00017000  00000+0  41362-3 0  9995
2 67102  42.9999 175.0580 0001806 289.6898 180.5505 15.40677626  4575
STARLINK-36256          
1 67103U 25299B   26005.16670139 -.02395746  00000+0 -58854-1 0  9998
2 67103  43.0004 175.0054 0000739 268.5247 224.0540 15.43434347  4576
STARLINK-36258          
1 67104U 25299C   26005.16670139 -.00120584  00000+0 -20776-2 0  9996
2 67104  42.9999 174.9456 0002168 268.8748 247.5369 15.50627448  4572
STARLINK-36261          
1 67105U 25299D   26005.16670139  .00014818  00000+0  36168-3 0  9990
2 67105  42.9998 175.0281 0001887 282.8206 199.8813 15.40667000  4572
STARLINK-36259          
1 67106U 25299E   26005.16670139  .00011793  00000+0  20640-3 0  9998
2 67106  42.9996 174.9323 0001799 271.5990 250.4140 15.50597794  4573
STARLINK-36196          
1 67107U 25299F   26005.16670139 -.00115959  00000+0 -19969-2 0  9991
2 67107  42.9998 174.9362 0002071 275.0048 245.2427 15.50623099  4574
STARLINK-36208          
1 67108U 25299G   26005.16670139 -.00061828  00000+0 -10558-2 0  9992
2 67108  42.9998 174.9272 0001757 267.1110 256.9755 15.50593508  4571
STARLINK-35764          
1 67109U 25299H   26005.16670139 -.02029138  00000+0 -44895-1 0  9993
2 67109  43.0003 174.9413 0001470 282.6720 236.5361 15.46447238  4467
