CCSDS_OMM_VERS = 2.0
CREATION_DATE  = 
ORIGINATOR     = 

OBJECT_NAME    = STARLINK-36205
OBJECT_ID      = 2025-298Z
CENTER_NAME    = EARTH
REF_FRAME      = TEME
TIME_SYSTEM    = UTC
MEAN_ELEMENT_THEORY = SGP/SGP4

EPOCH          = 2026-01-05T04:00:03.000096
MEAN_MOTION    = 15.42702320
ECCENTRICITY   = .0003048
INCLINATION    = 69.9999
RA_OF_ASC_NODE = 184.0847
ARG_OF_PERICENTER = 274.2326
MEAN_ANOMALY   = 176.8531

EPHEMERIS_TYPE = 0
CLASSIFICATION_TYPE = U
NORAD_CAT_ID   = 67098
ELEMENT_SET_NO = 999
REV_AT_EPOCH   = 474
BSTAR          = .11648E-3
MEAN_MOTION_DOT = .4954E-4
MEAN_MOTION_DDOT = 0

CCSDS_OMM_VERS = 2.0
CREATION_DATE  = 
ORIGINATOR     = 

OBJECT_NAME    = STARLINK-36193
OBJECT_ID      = 2025-298AA
CENTER_NAME    = EARTH
REF_FRAME      = TEME
TIME_SYSTEM    = UTC
MEAN_ELEMENT_THEORY = SGP/SGP4

EPOCH          = 2026-01-05T04:00:03.000096
MEAN_MOTION    = 15.42705840
ECCENTRICITY   = .0003297
INCLINATION    = 69.9996
RA_OF_ASC_NODE = 184.3419
ARG_OF_PERICENTER = 283.2343
MEAN_ANOMALY   = 303.8602

EPHEMERIS_TYPE = 0
CLASSIFICATION_TYPE = U
NORAD_CAT_ID   = 67099
ELEMENT_SET_NO = 999
REV_AT_EPOCH   = 468
BSTAR          = -.771E-4
MEAN_MOTION_DOT = -.3523E-4
MEAN_MOTION_DDOT = 0

CCSDS_OMM_VERS = 2.0
CREATION_DATE  = 
ORIGINATOR     = 

OBJECT_NAME    = STARLINK-36215
OBJECT_ID      = 2025-298AB
CENTER_NAME    = EARTH
REF_FRAME      = TEME
TIME_SYSTEM    = UTC
MEAN_ELEMENT_THEORY = SGP/SGP4

EPOCH          = 2026-01-05T01:45:49.285440
MEAN_MOTION    = 15.52569930
ECCENTRICITY   = .0003416
INCLINATION    = 69.9996
RA_OF_ASC_NODE = 184.2598
ARG_OF_PERICENTER = 270.3720
MEAN_ANOMALY   = 89.7075

EPHEMERIS_TYPE = 0
CLASSIFICATION_TYPE = U
NORAD_CAT_ID   = 67100
ELEMENT_SET_NO = 999
REV_AT_EPOCH   = 345
BSTAR          = .14886E-2
MEAN_MOTION_DOT = .92656E-3
MEAN_MOTION_DDOT = 0

CCSDS_OMM_VERS = 2.0
CREATION_DATE  = 
ORIGINATOR     = 

OBJECT_NAME    = STARLINK-36200
OBJECT_ID      = 2025-298AC
CENTER_NAME    = EARTH
REF_FRAME      = TEME
TIME_SYSTEM    = UTC
MEAN_ELEMENT_THEORY = SGP/SGP4

EPOCH          = 2026-01-05T01:47:00.056544
MEAN_MOTION    = 15.51698128
ECCENTRICITY   = .0003242
INCLINATION    = 69.9997
RA_OF_ASC_NODE = 184.2645
ARG_OF_PERICENTER = 276.9868
MEAN_ANOMALY   = 83.0949

EPHEMERIS_TYPE = 0
CLASSIFICATION_TYPE = U
NORAD_CAT_ID   = 67101
ELEMENT_SET_NO = 999
REV_AT_EPOCH   = 345
BSTAR          = -.11221E-1
MEAN_MOTION_DOT = -.620522E-2
MEAN_MOTION_DDOT = 0

CCSDS_OMM_VERS = 2.0
CREATION_DATE  = 
ORIGINATOR     = 

OBJECT_NAME    = STARLINK-36255
OBJECT_ID      = 2025-299A
CENTER_NAME    = EARTH
REF_FRAME      = TEME
TIME_SYSTEM    = UTC
MEAN_ELEMENT_THEORY = SGP/SGP4

EPOCH          = 2026-01-05T04:00:03.000096
MEAN_MOTION    = 15.40677626
ECCENTRICITY   = .0001806
INCLINATION    = 42.9999
RA_OF_ASC_NODE = 175.0580
ARG_OF_PERICENTER = 289.6898
MEAN_ANOMALY   = 180.5505

EPHEMERIS_TYPE = 0
CLASSIFICATION_TYPE = U
NORAD_CAT_ID   = 67102
ELEMENT_SET_NO = 999
REV_AT_EPOCH   = 457
BSTAR          = .41362E-3
MEAN_MOTION_DOT = .17E-3
MEAN_MOTION_DDOT = 0

CCSDS_OMM_VERS = 2.0
CREATION_DATE  = 
ORIGINATOR     = 

OBJECT_NAME    = STARLINK-36256
OBJECT_ID      = 2025-299B
CENTER_NAME    = EARTH
REF_FRAME      = TEME
TIME_SYSTEM    = UTC
MEAN_ELEMENT_THEORY = SGP/SGP4

EPOCH          = 2026-01-05T04:00:03.000096
MEAN_MOTION    = 15.43434347
ECCENTRICITY   = .0000739
INCLINATION    = 43.0004
RA_OF_ASC_NODE = 175.0054
ARG_OF_PERICENTER = 268.5247
MEAN_ANOMALY   = 224.0540

EPHEMERIS_TYPE = 0
CLASSIFICATION_TYPE = U
NORAD_CAT_ID   = 67103
ELEMENT_SET_NO = 999
REV_AT_EPOCH   = 457
BSTAR          = -.58854E-1
MEAN_MOTION_DOT = -.2395746E-1
MEAN_MOTION_DDOT = 0

CCSDS_OMM_VERS = 2.0
CREATION_DATE  = 
ORIGINATOR     = 

OBJECT_NAME    = STARLINK-36258
OBJECT_ID      = 2025-299C
CENTER_NAME    = EARTH
REF_FRAME      = TEME
TIME_SYSTEM    = UTC
MEAN_ELEMENT_THEORY = SGP/SGP4

EPOCH          = 2026-01-05T04:00:03.000096
MEAN_MOTION    = 15.50627448
ECCENTRICITY   = .0002168
INCLINATION    = 42.9999
RA_OF_ASC_NODE = 174.9456
ARG_OF_PERICENTER = 268.8748
MEAN_ANOMALY   = 247.5369

EPHEMERIS_TYPE = 0
CLASSIFICATION_TYPE = U
NORAD_CAT_ID   = 67104
ELEMENT_SET_NO = 999
REV_AT_EPOCH   = 457
BSTAR          = -.20776E-2
MEAN_MOTION_DOT = -.120584E-2
MEAN_MOTION_DDOT = 0

CCSDS_OMM_VERS = 2.0
CREATION_DATE  = 
ORIGINATOR     = 

OBJECT_NAME    = STARLINK-36261
OBJECT_ID      = 2025-299D
CENTER_NAME    = EARTH
REF_FRAME      = TEME
TIME_SYSTEM    = UTC
MEAN_ELEMENT_THEORY = SGP/SGP4

EPOCH          = 2026-01-05T04:00:03.000096
MEAN_MOTION    = 15.40667000
ECCENTRICITY   = .0001887
INCLINATION    = 42.9998
RA_OF_ASC_NODE = 175.0281
ARG_OF_PERICENTER = 282.8206
MEAN_ANOMALY   = 199.8813

EPHEMERIS_TYPE = 0
CLASSIFICATION_TYPE = U
NORAD_CAT_ID   = 67105
ELEMENT_SET_NO = 999
REV_AT_EPOCH   = 457
BSTAR          = .36168E-3
MEAN_MOTION_DOT = .14818E-3
MEAN_MOTION_DDOT = 0

CCSDS_OMM_VERS = 2.0
CREATION_DATE  = 
ORIGINATOR     = 

OBJECT_NAME    = STARLINK-36259
OBJECT_ID      = 2025-299E
CENTER_NAME    = EARTH
REF_FRAME      = TEME
TIME_SYSTEM    = UTC
MEAN_ELEMENT_THEORY = SGP/SGP4

EPOCH          = 2026-01-05T04:00:03.000096
MEAN_MOTION    = 15.50597794
ECCENTRICITY   = .0001799
INCLINATION    = 42.9996
RA_OF_ASC_NODE = 174.9323
ARG_OF_PERICENTER = 271.5990
MEAN_ANOMALY   = 250.4140

EPHEMERIS_TYPE = 0
CLASSIFICATION_TYPE = U
NORAD_CAT_ID   = 67106
ELEMENT_SET_NO = 999
REV_AT_EPOCH   = 457
BSTAR          = .2064E-3
MEAN_MOTION_DOT = .11793E-3
MEAN_MOTION_DDOT = 0

CCSDS_OMM_VERS = 2.0
CREATION_DATE  = 
ORIGINATOR     = 

OBJECT_NAME    = STARLINK-36196
OBJECT_ID      = 2025-299F
CENTER_NAME    = EARTH
REF_FRAME      = TEME
TIME_SYSTEM    = UTC
MEAN_ELEMENT_THEORY = SGP/SGP4

EPOCH          = 2026-01-05T04:00:03.000096
MEAN_MOTION    = 15.50623099
ECCENTRICITY   = .0002071
INCLINATION    = 42.9998
RA_OF_ASC_NODE = 174.9362
ARG_OF_PERICENTER = 275.0048
MEAN_ANOMALY   = 245.2427

EPHEMERIS_TYPE = 0
CLASSIFICATION_TYPE = U
NORAD_CAT_ID   = 67107
ELEMENT_SET_NO = 999
REV_AT_EPOCH   = 457
BSTAR          = -.19969E-2
MEAN_MOTION_DOT = -.115959E-2
MEAN_MOTION_DDOT = 0

CCSDS_OMM_VERS = 2.0
CREATION_DATE  = 
ORIGINATOR     = 

OBJECT_NAME    = STARLINK-36208
OBJECT_ID      = 2025-299G
CENTER_NAME    = EARTH
REF_FRAME      = TEME
TIME_SYSTEM    = UTC
MEAN_ELEMENT_THEORY = SGP/SGP4

EPOCH          = 2026-01-05T04:00:03.000096
MEAN_MOTION    = 15.50593508
ECCENTRICITY   = .0001757
INCLINATION    = 42.9998
RA_OF_ASC_NODE = 174.9272
ARG_OF_PERICENTER = 267.1110
MEAN_ANOMALY   = 256.9755

EPHEMERIS_TYPE = 0
CLASSIFICATION_TYPE = U
NORAD_CAT_ID   = 67108
ELEMENT_SET_NO = 999
REV_AT_EPOCH   = 457
BSTAR          = -.10558E-2
MEAN_MOTION_DOT = -.61828E-3
MEAN_MOTION_DDOT = 0

CCSDS_OMM_VERS = 2.0
CREATION_DATE  = 
ORIGINATOR     = 

OBJECT_NAME    = STARLINK-35764
OBJECT_ID      = 2025-299H
CENTER_NAME    = EARTH
REF_FRAME      = TEME
TIME_SYSTEM    = UTC
MEAN_ELEMENT_THEORY = SGP/SGP4

EPOCH          = 2026-01-05T04:00:03.000096
MEAN_MOTION    = 15.46447238
ECCENTRICITY   = .000147
INCLINATION    = 43.0003
RA_OF_ASC_NODE = 174.9413
ARG_OF_PERICENTER = 282.6720
MEAN_ANOMALY   = 236.5361

EPHEMERIS_TYPE = 0
CLASSIFICATION_TYPE = U
NORAD_CAT_ID   = 67109
ELEMENT_SET_NO = 999
REV_AT_EPOCH   = 446
BSTAR          = -.44895E-1
MEAN_MOTION_DOT = -.2029138E-1
MEAN_MOTION_DDOT = 0

